{"type": "FeatureCollection", "features": [{"type": "Feature", "properties": {"name": "GEAUGA"}, "geometry": {"type": "Polygon", "coordinates": [[[-81.003, 41.426], [-81.003, 41.424], [-81.003, 41.348], [-81.392, 41.348], [-81.391, 41.57], [-81.296, 41.57], [-81.295, 41.641], [-81.101, 41.641], [-81.102, 41.714], [-81.004, 41.715], [-81.003, 41.7], [-81.003, 41.502], [-81.003, 41.426]]]}}, {"type": "Feature", "properties": {"name": "HANCOCK"}, "geometry": {"type": "Polygon", "coordinates": [[[-83.421, 41.167], [-83.42, 40.992], [-83.516, 40.818], [-83.88, 40.82], [-83.88, 40.92], [-83.881, 41.168], [-83.421, 41.167]]]}}, {"type": "Feature", "properties": {"name": "HARDIN"}, "geometry": {"type": "Polygon", "coordinates": [[[-83.52, 40.504], [-83.88, 40.539], [-83.88, 40.645], [-83.88, 40.82], [-83.516, 40.818], [-83.496, 40.702], [-83.42, 40.687], [-83.415, 40.515], [-83.418, 40.505], [-83.52, 40.504]]]}}, {"type": "Feature", "properties": {"name": "HOLMES"}, "geometry": {"type": "Polygon", "coordinates": [[[-82.126, 40.668], [-81.65, 40.668], [-81.65, 40.655], [-81.649, 40.635], [-81.67, 40.444], [-81.709, 40.445], [-82.185, 40.456], [-82.179, 40.573], [-82.22, 40.568], [-82.221, 40.668], [-82.126, 40.668]]]}}, {"type": "Feature", "properties": {"name": "LICKING"}, "geometry": {"type": "Polygon", "coordinates": [[[-82.582, 39.93], [-82.782, 39.94], [-82.762, 40.126], [-82.751, 40.277], [-82.476, 40.265], [-82.364, 40.241], [-82.326, 40.24], [-82.196, 40.239], [-82.183, 40.239], [-82.187, 40.167], [-82.199, 39.95], [-82.234, 39.913], [-82.463, 39.93], [-82.473, 39.925], [-82.582, 39.93]]]}}, {"type": "Feature", "properties": {"name": "MADISON"}, "geometry": {"type": "Polygon", "coordinates": [[[-83.504, 40.111], [-83.206, 40.108], [-83.254, 40.049], [-83.244, 39.813], [-83.252, 39.695], [-83.653, 39.717], [-83.649, 39.761], [-83.649, 39.768], [-83.647, 39.773], [-83.588, 39.769], [-83.516, 40.01], [-83.504, 40.111]]]}}, {"type": "Feature", "properties": {"name": "MIAMI"}, "geometry": {"type": "Polygon", "coordinates": [[[-84.157, 39.886], [-84.158, 39.923], [-84.426, 39.92], [-84.433, 40.197], [-84.023, 40.184], [-84.036, 40.04], [-84.051, 39.88], [-84.056, 39.88], [-84.098, 39.883], [-84.105, 39.883], [-84.154, 39.886], [-84.157, 39.886]]]}}, {"type": "Feature", "properties": {"name": "NOBLE"}, "geometry": {"type": "Polygon", "coordinates": [[[-81.588, 39.587], [-81.586, 39.664], [-81.643, 39.666], [-81.64, 39.753], [-81.697, 39.756], [-81.694, 39.843], [-81.58, 39.839], [-81.579, 39.898], [-81.464, 39.895], [-81.386, 39.951], [-81.234, 39.951], [-81.237, 39.868], [-81.314, 39.869], [-81.319, 39.707], [-81.283, 39.606], [-81.395, 39.602], [-81.473, 39.646], [-81.473, 39.583], [-81.588, 39.587]]]}}, {"type": "Feature", "properties": {"name": "PIKE"}, "geometry": {"type": "Polygon", "coordinates": [[[-83.044, 38.957], [-83.212, 38.96], [-83.271, 39.016], [-83.386, 39.055], [-83.354, 39.198], [-82.786, 39.169], [-82.807, 38.948], [-83.044, 38.957]]]}}, {"type": "Feature", "properties": {"name": "SANDUSKY"}, "geometry": {"type": "Polygon", "coordinates": [[[-83.415, 41.5], [-83.338, 41.458], [-82.952, 41.458], [-82.848, 41.43], [-82.841, 41.29], [-82.84, 41.255], [-83.42, 41.254], [-83.415, 41.5]]]}}, {"type": "Feature", "properties": {"name": "SENECA"}, "geometry": {"type": "Polygon", "coordinates": [[[-83.305, 40.993], [-83.42, 40.992], [-83.421, 41.167], [-83.42, 41.254], [-82.84, 41.255], [-82.83, 40.997], [-83.113, 40.993], [-83.305, 40.993]]]}}, {"type": "Feature", "properties": {"name": "UNION"}, "geometry": {"type": "Polygon", "coordinates": [[[-83.551, 40.229], [-83.52, 40.504], [-83.418, 40.505], [-83.248, 40.507], [-83.249, 40.444], [-83.248, 40.244], [-83.172, 40.244], [-83.17, 40.143], [-83.17, 40.107], [-83.206, 40.108], [-83.504, 40.111], [-83.494, 40.225], [-83.551, 40.229]]]}}, {"type": "Feature", "properties": {"name": "WAYNE"}, "geometry": {"type": "Polygon", "coordinates": [[[-82.128, 40.901], [-82.129, 40.93], [-82.128, 40.937], [-82.129, 40.992], [-81.688, 40.989], [-81.648, 40.914], [-81.65, 40.668], [-82.126, 40.668], [-82.125, 40.886], [-82.128, 40.901]]]}}, {"type": "Feature", "properties": {"name": "WOOD"}, "geometry": {"type": "Polygon", "coordinates": [[[-83.703, 41.529], [-83.57, 41.617], [-83.416, 41.619], [-83.415, 41.5], [-83.42, 41.254], [-83.421, 41.167], [-83.881, 41.168], [-83.883, 41.415], [-83.712, 41.493], [-83.703, 41.529]]]}}, {"type": "Feature", "properties": {"name": "ALLEN"}, "geometry": {"type": "Polygon", "coordinates": [[[-84.341, 40.859], [-84.11, 40.861], [-84.11, 40.905], [-83.88, 40.92], [-83.88, 40.82], [-83.88, 40.645], [-84.108, 40.643], [-84.223, 40.686], [-84.397, 40.685], [-84.397, 40.816], [-84.341, 40.859]]]}}, {"type": "Feature", "properties": {"name": "BROWN"}, "geometry": {"type": "Polygon", "coordinates": [[[-83.904, 38.768], [-83.904, 38.768], [-83.944, 38.784], [-83.962, 38.787], [-83.979, 38.787], [-84.044, 38.771], [-84.053, 38.771], [-83.995, 39.228], [-83.993, 39.254], [-83.866, 39.247], [-83.872, 39.021], [-83.673, 39.02], [-83.705, 38.64], [-83.706, 38.637], [-83.762, 38.652], [-83.769, 38.655], [-83.774, 38.661], [-83.778, 38.674], [-83.853, 38.753], [-83.859, 38.757], [-83.87, 38.762], [-83.904, 38.768]]]}}, {"type": "Feature", "properties": {"name": "CLINTON"}, "geometry": {"type": "Polygon", "coordinates": [[[-83.989, 39.444], [-83.977, 39.569], [-83.67, 39.55], [-83.576, 39.545], [-83.591, 39.379], [-83.785, 39.263], [-83.866, 39.247], [-83.993, 39.254], [-84.007, 39.255], [-83.989, 39.444]]]}}, {"type": "Feature", "properties": {"name": "DEFIANCE"}, "geometry": {"type": "Polygon", "coordinates": [[[-84.804, 41.368], [-84.804, 41.408], [-84.804, 41.408], [-84.804, 41.412], [-84.804, 41.426], [-84.342, 41.428], [-84.228, 41.428], [-84.228, 41.166], [-84.342, 41.166], [-84.342, 41.209], [-84.457, 41.209], [-84.457, 41.253], [-84.803, 41.253], [-84.804, 41.271], [-84.804, 41.271], [-84.804, 41.271], [-84.804, 41.368]]]}}, {"type": "Feature", "properties": {"name": "FAYETTE"}, "geometry": {"type": "Polygon", "coordinates": [[[-83.267, 39.516], [-83.317, 39.45], [-83.373, 39.377], [-83.375, 39.378], [-83.591, 39.379], [-83.576, 39.545], [-83.67, 39.55], [-83.653, 39.717], [-83.252, 39.695], [-83.267, 39.516]]]}}, {"type": "Feature", "properties": {"name": "MEIGS"}, "geometry": {"type": "Polygon", "coordinates": [[[-81.75, 39.181], [-81.747, 39.095], [-81.747, 39.095], [-81.812, 39.082], [-81.814, 39.073], [-81.812, 39.06], [-81.803, 39.048], [-81.793, 39.04], [-81.773, 39.026], [-81.764, 39.015], [-81.756, 38.934], [-81.76, 38.926], [-81.875, 38.881], [-81.909, 38.878], [-81.927, 38.892], [-81.928, 38.895], [-81.927, 38.901], [-81.901, 38.924], [-81.898, 38.93], [-81.901, 38.938], [-81.92, 38.968], [-81.936, 38.989], [-82.002, 39.028], [-82.018, 39.03], [-82.036, 39.025], [-82.042, 39.018], [-82.046, 39.004], [-82.052, 38.994], [-82.093, 38.971], [-82.099, 38.958], [-82.095, 39.003], [-82.323, 39.028], [-82.307, 39.205], [-82.269, 39.204], [-81.75, 39.181]]]}}, {"type": "Feature", "properties": {"name": "MERCER"}, "geometry": {"type": "Polygon", "coordinates": [[[-84.456, 40.568], [-84.455, 40.359], [-84.434, 40.355], [-84.432, 40.354], [-84.435, 40.354], [-84.804, 40.353], [-84.804, 40.353], [-84.803, 40.465], [-84.802, 40.528], [-84.802, 40.572], [-84.802, 40.572], [-84.802, 40.645], [-84.802, 40.66], [-84.802, 40.675], [-84.802, 40.689], [-84.802, 40.691], [-84.802, 40.702], [-84.802, 40.719], [-84.802, 40.728], [-84.456, 40.728], [-84.456, 40.685], [-84.456, 40.568]]]}}, {"type": "Feature", "properties": {"name": "MORROW"}, "geometry": {"type": "Polygon", "coordinates": [[[-82.727, 40.711], [-82.627, 40.709], [-82.624, 40.55], [-82.647, 40.345], [-82.745, 40.35], [-82.93, 40.358], [-82.925, 40.415], [-83.021, 40.434], [-82.958, 40.491], [-82.958, 40.645], [-82.86, 40.646], [-82.858, 40.705], [-82.727, 40.711]]]}}, {"type": "Feature", "properties": {"name": "MUSKINGUM"}, "geometry": {"type": "Polygon", "coordinates": [[[-82.077, 39.771], [-82.073, 39.816], [-82.17, 39.821], [-82.162, 39.909], [-82.234, 39.913], [-82.199, 39.95], [-82.187, 40.167], [-81.717, 40.153], [-81.716, 40.152], [-81.729, 39.932], [-81.694, 39.843], [-81.697, 39.756], [-82.077, 39.771]]]}}, {"type": "Feature", "properties": {"name": "PAULDING"}, "geometry": {"type": "Polygon", "coordinates": [[[-84.342, 41.166], [-84.342, 40.991], [-84.399, 40.99], [-84.803, 40.989], [-84.803, 41.089], [-84.803, 41.097], [-84.803, 41.165], [-84.804, 41.173], [-84.803, 41.174], [-84.803, 41.253], [-84.803, 41.253], [-84.457, 41.253], [-84.457, 41.209], [-84.342, 41.209], [-84.342, 41.166]]]}}, {"type": "Feature", "properties": {"name": "PICKAWAY"}, "geometry": {"type": "Polygon", "coordinates": [[[-82.741, 39.468], [-82.998, 39.48], [-82.985, 39.507], [-83.267, 39.516], [-83.252, 39.695], [-83.244, 39.813], [-83.013, 39.804], [-82.824, 39.795], [-82.843, 39.561], [-82.732, 39.554], [-82.741, 39.468]]]}}, {"type": "Feature", "properties": {"name": "PORTAGE"}, "geometry": {"type": "Polygon", "coordinates": [[[-81.393, 40.989], [-81.392, 41.136], [-81.392, 41.137], [-81.392, 41.277], [-81.392, 41.332], [-81.392, 41.337], [-81.392, 41.341], [-81.392, 41.348], [-81.003, 41.348], [-81.003, 41.272], [-81.002, 41.134], [-81.002, 40.988], [-81.087, 40.988], [-81.393, 40.989]]]}}, {"type": "Feature", "properties": {"name": "PREBLE"}, "geometry": {"type": "Polygon", "coordinates": [[[-84.814, 39.786], [-84.814, 39.787], [-84.814, 39.8], [-84.814, 39.811], [-84.814, 39.814], [-84.814, 39.825], [-84.814, 39.827], [-84.814, 39.843], [-84.814, 39.843], [-84.814, 39.851], [-84.813, 39.853], [-84.813, 39.873], [-84.813, 39.891], [-84.813, 39.892], [-84.812, 39.917], [-84.485, 39.918], [-84.479, 39.591], [-84.479, 39.569], [-84.815, 39.568], [-84.815, 39.568], [-84.815, 39.629], [-84.815, 39.669], [-84.815, 39.68], [-84.814, 39.727], [-84.814, 39.727], [-84.814, 39.786]]]}}, {"type": "Feature", "properties": {"name": "RICHLAND"}, "geometry": {"type": "Polygon", "coordinates": [[[-82.416, 40.902], [-82.378, 40.727], [-82.339, 40.727], [-82.337, 40.555], [-82.375, 40.551], [-82.624, 40.55], [-82.627, 40.709], [-82.727, 40.711], [-82.725, 40.996], [-82.433, 40.993], [-82.418, 40.993], [-82.416, 40.902]]]}}, {"type": "Feature", "properties": {"name": "ROSS"}, "geometry": {"type": "Polygon", "coordinates": [[[-82.998, 39.48], [-82.741, 39.468], [-82.741, 39.466], [-82.749, 39.368], [-82.763, 39.208], [-82.767, 39.168], [-82.786, 39.169], [-83.354, 39.198], [-83.394, 39.267], [-83.373, 39.377], [-83.317, 39.45], [-83.267, 39.516], [-82.985, 39.507], [-82.998, 39.48]]]}}, {"type": "Feature", "properties": {"name": "SHELBY"}, "geometry": {"type": "Polygon", "coordinates": [[[-84.023, 40.184], [-84.433, 40.197], [-84.435, 40.354], [-84.432, 40.354], [-84.434, 40.355], [-84.339, 40.379], [-84.339, 40.481], [-84.002, 40.483], [-84.015, 40.273], [-84.023, 40.184]]]}}, {"type": "Feature", "properties": {"name": "STARK"}, "geometry": {"type": "Polygon", "coordinates": [[[-81.468, 40.908], [-81.42, 40.907], [-81.393, 40.989], [-81.087, 40.988], [-81.087, 40.981], [-81.087, 40.945], [-81.087, 40.945], [-81.087, 40.941], [-81.087, 40.94], [-81.087, 40.938], [-81.087, 40.932], [-81.087, 40.932], [-81.087, 40.902], [-81.087, 40.728], [-81.237, 40.724], [-81.241, 40.651], [-81.318, 40.652], [-81.649, 40.635], [-81.65, 40.655], [-81.65, 40.668], [-81.648, 40.914], [-81.646, 40.914], [-81.468, 40.908]]]}}, {"type": "Feature", "properties": {"name": "TUSCARAWAS"}, "geometry": {"type": "Polygon", "coordinates": [[[-81.649, 40.635], [-81.318, 40.652], [-81.322, 40.567], [-81.265, 40.565], [-81.27, 40.433], [-81.275, 40.303], [-81.335, 40.304], [-81.338, 40.214], [-81.623, 40.221], [-81.616, 40.368], [-81.712, 40.371], [-81.709, 40.445], [-81.67, 40.444], [-81.649, 40.635]]]}}, {"type": "Feature", "properties": {"name": "VAN WERT"}, "geometry": {"type": "Polygon", "coordinates": [[[-84.341, 40.859], [-84.397, 40.816], [-84.397, 40.685], [-84.456, 40.685], [-84.456, 40.728], [-84.802, 40.728], [-84.802, 40.728], [-84.802, 40.742], [-84.803, 40.766], [-84.803, 40.922], [-84.803, 40.923], [-84.803, 40.989], [-84.803, 40.989], [-84.399, 40.99], [-84.398, 40.903], [-84.341, 40.859]]]}}, {"type": "Feature", "properties": {"name": "WASHINGTON"}, "geometry": {"type": "Polygon", "coordinates": [[[-81.371, 39.342], [-81.376, 39.342], [-81.385, 39.343], [-81.394, 39.352], [-81.407, 39.388], [-81.413, 39.395], [-81.436, 39.408], [-81.447, 39.41], [-81.456, 39.409], [-81.468, 39.404], [-81.542, 39.353], [-81.606, 39.276], [-81.696, 39.243], [-81.722, 39.212], [-81.722, 39.27], [-81.854, 39.318], [-81.845, 39.45], [-81.823, 39.494], [-81.709, 39.481], [-81.714, 39.584], [-81.588, 39.587], [-81.473, 39.583], [-81.473, 39.646], [-81.395, 39.602], [-81.283, 39.606], [-81.247, 39.579], [-81.037, 39.572], [-81.039, 39.54], [-81.064, 39.52], [-81.128, 39.465], [-81.216, 39.389], [-81.224, 39.386], [-81.249, 39.39], [-81.271, 39.386], [-81.295, 39.375], [-81.348, 39.346], [-81.357, 39.343], [-81.371, 39.342]]]}}, {"type": "Feature", "properties": {"name": "WILLIAMS"}, "geometry": {"type": "Polygon", "coordinates": [[[-84.342, 41.428], [-84.804, 41.426], [-84.804, 41.426], [-84.804, 41.436], [-84.804, 41.488], [-84.805, 41.5], [-84.805, 41.53], [-84.805, 41.53], [-84.805, 41.53], [-84.806, 41.613], [-84.806, 41.631], [-84.806, 41.632], [-84.806, 41.675], [-84.806, 41.696], [-84.438, 41.705], [-84.4, 41.706], [-84.381, 41.514], [-84.342, 41.486], [-84.342, 41.428]]]}}, {"type": "Feature", "properties": {"name": "WYANDOT"}, "geometry": {"type": "Polygon", "coordinates": [[[-83.111, 40.703], [-83.305, 40.702], [-83.42, 40.687], [-83.496, 40.702], [-83.516, 40.818], [-83.42, 40.992], [-83.305, 40.993], [-83.113, 40.993], [-83.111, 40.703]]]}}, {"type": "Feature", "properties": {"name": "ADAMS"}, "geometry": {"type": "Polygon", "coordinates": [[[-83.643, 38.643], [-83.647, 38.637], [-83.65, 38.633], [-83.655, 38.63], [-83.664, 38.628], [-83.679, 38.63], [-83.706, 38.637], [-83.705, 38.64], [-83.673, 39.02], [-83.612, 39.019], [-83.386, 39.055], [-83.271, 39.016], [-83.266, 38.605], [-83.282, 38.603], [-83.321, 38.623], [-83.324, 38.633], [-83.333, 38.642], [-83.369, 38.659], [-83.513, 38.702], [-83.521, 38.703], [-83.533, 38.702], [-83.575, 38.693], [-83.616, 38.684], [-83.627, 38.679], [-83.636, 38.671], [-83.643, 38.643]]]}}, {"type": "Feature", "properties": {"name": "ASHLAND"}, "geometry": {"type": "Polygon", "coordinates": [[[-82.416, 40.902], [-82.418, 40.993], [-82.433, 40.993], [-82.437, 41.065], [-82.336, 41.066], [-82.171, 41.064], [-82.173, 40.992], [-82.129, 40.992], [-82.128, 40.937], [-82.129, 40.93], [-82.128, 40.901], [-82.125, 40.886], [-82.126, 40.668], [-82.221, 40.668], [-82.22, 40.568], [-82.337, 40.555], [-82.339, 40.727], [-82.378, 40.727], [-82.416, 40.902]]]}}, {"type": "Feature", "properties": {"name": "AUGLAIZE"}, "geometry": {"type": "Polygon", "coordinates": [[[-84.456, 40.568], [-84.456, 40.685], [-84.397, 40.685], [-84.223, 40.686], [-84.108, 40.643], [-83.88, 40.645], [-83.88, 40.539], [-83.994, 40.535], [-84.002, 40.483], [-84.339, 40.481], [-84.339, 40.379], [-84.434, 40.355], [-84.455, 40.359], [-84.456, 40.568]]]}}, {"type": "Feature", "properties": {"name": "BELMONT"}, "geometry": {"type": "Polygon", "coordinates": [[[-80.705, 40.153], [-80.727, 40.089], [-80.733, 40.059], [-80.731, 40.049], [-80.732, 40.037], [-80.732, 40.033], [-80.74, 39.971], [-80.743, 39.969], [-80.759, 39.958], [-80.806, 39.917], [-80.809, 39.913], [-80.81, 39.906], [-80.806, 39.897], [-80.812, 39.849], [-81.237, 39.868], [-81.234, 39.951], [-81.226, 40.17], [-81.036, 40.165], [-80.883, 40.159], [-80.703, 40.157], [-80.705, 40.153]]]}}, {"type": "Feature", "properties": {"name": "BUTLER"}, "geometry": {"type": "Polygon", "coordinates": [[[-84.348, 39.349], [-84.353, 39.292], [-84.391, 39.298], [-84.428, 39.299], [-84.447, 39.301], [-84.631, 39.312], [-84.819, 39.305], [-84.819, 39.309], [-84.817, 39.392], [-84.816, 39.477], [-84.816, 39.477], [-84.816, 39.511], [-84.816, 39.511], [-84.815, 39.522], [-84.815, 39.522], [-84.815, 39.548], [-84.815, 39.566], [-84.815, 39.567], [-84.815, 39.568], [-84.479, 39.569], [-84.479, 39.591], [-84.474, 39.59], [-84.365, 39.589], [-84.332, 39.549], [-84.348, 39.349]]]}}, {"type": "Feature", "properties": {"name": "CARROLL"}, "geometry": {"type": "Polygon", "coordinates": [[[-80.862, 40.599], [-80.921, 40.556], [-80.942, 40.425], [-81.27, 40.433], [-81.265, 40.565], [-81.322, 40.567], [-81.318, 40.652], [-81.241, 40.651], [-81.237, 40.724], [-81.087, 40.728], [-80.917, 40.727], [-80.918, 40.643], [-80.862, 40.599]]]}}, {"type": "Feature", "properties": {"name": "CLARK"}, "geometry": {"type": "Polygon", "coordinates": [[[-84.051, 39.88], [-84.036, 40.04], [-83.516, 40.01], [-83.588, 39.769], [-83.647, 39.773], [-83.829, 39.798], [-83.827, 39.823], [-84.054, 39.85], [-84.053, 39.855], [-84.053, 39.856], [-84.052, 39.866], [-84.052, 39.878], [-84.051, 39.88]]]}}, {"type": "Feature", "properties": {"name": "CLERMONT"}, "geometry": {"type": "Polygon", "coordinates": [[[-84.259, 39.271], [-84.007, 39.255], [-83.993, 39.254], [-83.995, 39.228], [-84.053, 38.771], [-84.071, 38.77], [-84.206, 38.803], [-84.213, 38.806], [-84.225, 38.818], [-84.23, 38.828], [-84.231, 38.831], [-84.234, 38.854], [-84.232, 38.875], [-84.232, 38.88], [-84.234, 38.893], [-84.305, 39.006], [-84.314, 39.017], [-84.32, 39.022], [-84.317, 39.227], [-84.259, 39.271]]]}}, {"type": "Feature", "properties": {"name": "COLUMBIANA"}, "geometry": {"type": "Polygon", "coordinates": [[[-80.52, 40.9], [-80.519, 40.851], [-80.519, 40.85], [-80.519, 40.849], [-80.519, 40.801], [-80.519, 40.792], [-80.519, 40.639], [-80.561, 40.624], [-80.589, 40.62], [-80.594, 40.624], [-80.601, 40.625], [-80.627, 40.62], [-80.634, 40.616], [-80.666, 40.588], [-80.668, 40.582], [-80.862, 40.599], [-80.918, 40.643], [-80.917, 40.727], [-81.087, 40.728], [-81.087, 40.902], [-80.52, 40.9]]]}}, {"type": "Feature", "properties": {"name": "CRAWFORD"}, "geometry": {"type": "Polygon", "coordinates": [[[-83.111, 40.703], [-83.113, 40.993], [-82.83, 40.997], [-82.725, 40.996], [-82.727, 40.711], [-82.858, 40.705], [-83.111, 40.703]]]}}, {"type": "Feature", "properties": {"name": "DARKE"}, "geometry": {"type": "Polygon", "coordinates": [[[-84.804, 40.31], [-84.804, 40.31], [-84.804, 40.353], [-84.435, 40.354], [-84.433, 40.197], [-84.426, 39.92], [-84.446, 39.919], [-84.447, 39.919], [-84.448, 39.919], [-84.485, 39.918], [-84.812, 39.917], [-84.812, 39.917], [-84.812, 39.922], [-84.812, 39.927], [-84.811, 40.005], [-84.81, 40.034], [-84.81, 40.049], [-84.809, 40.107], [-84.808, 40.127], [-84.808, 40.129], [-84.807, 40.18], [-84.806, 40.192], [-84.806, 40.192], [-84.806, 40.198], [-84.806, 40.224], [-84.804, 40.302], [-84.804, 40.31]]]}}, {"type": "Feature", "properties": {"name": "DELAWARE"}, "geometry": {"type": "Polygon", "coordinates": [[[-82.75, 40.289], [-82.75, 40.284], [-82.751, 40.277], [-82.762, 40.126], [-83.064, 40.138], [-83.149, 40.142], [-83.17, 40.143], [-83.172, 40.244], [-83.248, 40.244], [-83.249, 40.444], [-83.021, 40.434], [-82.925, 40.415], [-82.93, 40.358], [-82.745, 40.35], [-82.75, 40.289]]]}}, {"type": "Feature", "properties": {"name": "ERIE"}, "geometry": {"type": "MultiPolygon", "coordinates": [[[[-82.7, 41.612], [-82.691, 41.611], [-82.68, 41.619], [-82.678, 41.618], [-82.681, 41.595], [-82.686, 41.587], [-82.689, 41.586], [-82.702, 41.585], [-82.726, 41.595], [-82.736, 41.601], [-82.736, 41.603], [-82.719, 41.62], [-82.707, 41.62], [-82.703, 41.618], [-82.7, 41.612]]], [[[-82.952, 41.458], [-82.92, 41.458], [-82.907, 41.46], [-82.856, 41.472], [-82.828, 41.482], [-82.695, 41.494], [-82.688, 41.492], [-82.658, 41.462], [-82.618, 41.432], [-82.617, 41.428], [-82.558, 41.4], [-82.514, 41.384], [-82.499, 41.382], [-82.481, 41.381], [-82.461, 41.386], [-82.431, 41.397], [-82.398, 41.414], [-82.362, 41.427], [-82.348, 41.428], [-82.342, 41.284], [-82.841, 41.29], [-82.848, 41.43], [-82.952, 41.458]]]]}}, {"type": "Feature", "properties": {"name": "FRANKLIN"}, "geometry": {"type": "Polygon", "coordinates": [[[-82.811, 39.932], [-82.824, 39.795], [-83.013, 39.804], [-83.244, 39.813], [-83.254, 40.049], [-83.206, 40.108], [-83.17, 40.107], [-83.17, 40.143], [-83.149, 40.142], [-83.064, 40.138], [-82.762, 40.126], [-82.782, 39.94], [-82.811, 39.941], [-82.811, 39.932]]]}}, {"type": "Feature", "properties": {"name": "HAMILTON"}, "geometry": {"type": "Polygon", "coordinates": [[[-84.51, 39.094], [-84.603, 39.074], [-84.62, 39.073], [-84.624, 39.074], [-84.632, 39.077], [-84.685, 39.1], [-84.69, 39.104], [-84.719, 39.137], [-84.732, 39.144], [-84.744, 39.147], [-84.754, 39.147], [-84.767, 39.139], [-84.788, 39.115], [-84.82, 39.105], [-84.82, 39.149], [-84.82, 39.157], [-84.82, 39.158], [-84.82, 39.244], [-84.82, 39.248], [-84.82, 39.251], [-84.82, 39.262], [-84.82, 39.272], [-84.819, 39.305], [-84.819, 39.305], [-84.631, 39.312], [-84.447, 39.301], [-84.428, 39.299], [-84.391, 39.298], [-84.353, 39.292], [-84.259, 39.271], [-84.317, 39.227], [-84.32, 39.022], [-84.327, 39.027], [-84.433, 39.094], [-84.494, 39.102], [-84.502, 39.097], [-84.506, 39.095], [-84.51, 39.094], [-84.51, 39.094]]]}}, {"type": "Feature", "properties": {"name": "HIGHLAND"}, "geometry": {"type": "Polygon", "coordinates": [[[-83.373, 39.377], [-83.394, 39.267], [-83.354, 39.198], [-83.386, 39.055], [-83.612, 39.019], [-83.673, 39.02], [-83.872, 39.021], [-83.866, 39.247], [-83.785, 39.263], [-83.591, 39.379], [-83.375, 39.378], [-83.373, 39.377]]]}}, {"type": "Feature", "properties": {"name": "HURON"}, "geometry": {"type": "Polygon", "coordinates": [[[-82.83, 40.997], [-82.84, 41.255], [-82.841, 41.29], [-82.342, 41.284], [-82.336, 41.066], [-82.437, 41.065], [-82.433, 40.993], [-82.725, 40.996], [-82.83, 40.997]]]}}, {"type": "Feature", "properties": {"name": "JEFFERSON"}, "geometry": {"type": "Polygon", "coordinates": [[[-80.617, 40.396], [-80.619, 40.382], [-80.609, 40.36], [-80.6, 40.318], [-80.603, 40.307], [-80.617, 40.28], [-80.637, 40.255], [-80.645, 40.251], [-80.652, 40.245], [-80.685, 40.188], [-80.703, 40.157], [-80.883, 40.159], [-80.866, 40.423], [-80.942, 40.425], [-80.921, 40.556], [-80.862, 40.599], [-80.668, 40.582], [-80.667, 40.574], [-80.61, 40.491], [-80.599, 40.483], [-80.612, 40.435], [-80.617, 40.396]]]}}, {"type": "Feature", "properties": {"name": "LAWRENCE"}, "geometry": {"type": "Polygon", "coordinates": [[[-82.507, 38.41], [-82.52, 38.408], [-82.561, 38.404], [-82.594, 38.422], [-82.665, 38.506], [-82.666, 38.506], [-82.691, 38.537], [-82.697, 38.542], [-82.725, 38.558], [-82.731, 38.559], [-82.79, 38.56], [-82.8, 38.563], [-82.816, 38.571], [-82.74, 38.597], [-82.764, 38.68], [-82.707, 38.677], [-82.65, 38.849], [-82.626, 38.848], [-82.625, 38.848], [-82.576, 38.844], [-82.583, 38.779], [-82.484, 38.772], [-82.472, 38.682], [-82.354, 38.676], [-82.362, 38.585], [-82.287, 38.583], [-82.291, 38.579], [-82.294, 38.573], [-82.293, 38.56], [-82.296, 38.54], [-82.314, 38.468], [-82.32, 38.455], [-82.324, 38.449], [-82.33, 38.444], [-82.341, 38.441], [-82.507, 38.41]]]}}, {"type": "Feature", "properties": {"name": "LORAIN"}, "geometry": {"type": "Polygon", "coordinates": [[[-81.968, 41.506], [-81.971, 41.351], [-81.877, 41.344], [-81.878, 41.275], [-81.898, 41.275], [-81.906, 41.275], [-81.915, 41.275], [-81.921, 41.275], [-81.927, 41.275], [-81.972, 41.275], [-81.974, 41.2], [-82.072, 41.2], [-82.074, 41.136], [-82.17, 41.137], [-82.171, 41.064], [-82.336, 41.066], [-82.342, 41.284], [-82.348, 41.428], [-82.334, 41.43], [-82.292, 41.428], [-82.283, 41.429], [-82.268, 41.431], [-82.255, 41.434], [-82.193, 41.465], [-82.189, 41.468], [-82.186, 41.473], [-82.185, 41.474], [-82.182, 41.472], [-82.165, 41.474], [-82.094, 41.495], [-82.012, 41.516], [-81.995, 41.514], [-81.968, 41.506]]]}}, {"type": "Feature", "properties": {"name": "MAHONING"}, "geometry": {"type": "Polygon", "coordinates": [[[-80.519, 41.133], [-80.519, 41.133], [-80.519, 41.125], [-80.519, 41.125], [-80.519, 41.125], [-80.519, 41.125], [-80.519, 41.116], [-80.519, 41.105], [-80.519, 41.101], [-80.519, 41.091], [-80.519, 41.082], [-80.519, 41.075], [-80.519, 41.072], [-80.519, 41.071], [-80.519, 41.062], [-80.519, 41.015], [-80.519, 40.995], [-80.519, 40.987], [-80.519, 40.921], [-80.52, 40.901], [-80.52, 40.9], [-81.087, 40.902], [-81.087, 40.932], [-81.087, 40.932], [-81.087, 40.938], [-81.087, 40.94], [-81.087, 40.941], [-81.087, 40.945], [-81.087, 40.945], [-81.087, 40.981], [-81.087, 40.988], [-81.002, 40.988], [-81.002, 41.134], [-80.789, 41.134], [-80.519, 41.133]]]}}, {"type": "Feature", "properties": {"name": "MARION"}, "geometry": {"type": "Polygon", "coordinates": [[[-83.42, 40.687], [-83.305, 40.702], [-83.111, 40.703], [-82.858, 40.705], [-82.86, 40.646], [-82.958, 40.645], [-82.958, 40.491], [-83.021, 40.434], [-83.249, 40.444], [-83.248, 40.507], [-83.418, 40.505], [-83.415, 40.515], [-83.42, 40.687]]]}}, {"type": "Feature", "properties": {"name": "ATHENS"}, "geometry": {"type": "Polygon", "coordinates": [[[-82.056, 39.46], [-81.845, 39.45], [-81.854, 39.318], [-81.722, 39.27], [-81.722, 39.212], [-81.74, 39.191], [-81.75, 39.186], [-81.75, 39.181], [-82.269, 39.204], [-82.264, 39.253], [-82.264, 39.254], [-82.264, 39.256], [-82.264, 39.256], [-82.26, 39.293], [-82.298, 39.295], [-82.29, 39.384], [-82.28, 39.473], [-82.167, 39.466], [-82.159, 39.557], [-82.048, 39.551], [-82.056, 39.46]]]}}, {"type": "Feature", "properties": {"name": "CHAMPAIGN"}, "geometry": {"type": "Polygon", "coordinates": [[[-83.551, 40.229], [-83.494, 40.225], [-83.504, 40.111], [-83.516, 40.01], [-84.036, 40.04], [-84.023, 40.184], [-84.015, 40.273], [-83.551, 40.229]]]}}, {"type": "Feature", "properties": {"name": "COSHOCTON"}, "geometry": {"type": "Polygon", "coordinates": [[[-82.187, 40.167], [-82.183, 40.239], [-82.196, 40.239], [-82.184, 40.454], [-82.185, 40.456], [-81.709, 40.445], [-81.712, 40.371], [-81.616, 40.368], [-81.623, 40.221], [-81.716, 40.152], [-81.717, 40.153], [-82.187, 40.167]]]}}, {"type": "Feature", "properties": {"name": "FAIRFIELD"}, "geometry": {"type": "Polygon", "coordinates": [[[-82.824, 39.795], [-82.811, 39.932], [-82.811, 39.941], [-82.782, 39.94], [-82.582, 39.93], [-82.473, 39.925], [-82.463, 39.93], [-82.472, 39.837], [-82.397, 39.833], [-82.375, 39.655], [-82.49, 39.662], [-82.496, 39.603], [-82.618, 39.609], [-82.62, 39.564], [-82.732, 39.554], [-82.843, 39.561], [-82.824, 39.795]]]}}, {"type": "Feature", "properties": {"name": "GUERNSEY"}, "geometry": {"type": "Polygon", "coordinates": [[[-81.694, 39.843], [-81.729, 39.932], [-81.716, 40.152], [-81.623, 40.221], [-81.338, 40.214], [-81.34, 40.172], [-81.226, 40.17], [-81.234, 39.951], [-81.386, 39.951], [-81.464, 39.895], [-81.579, 39.898], [-81.58, 39.839], [-81.694, 39.843]]]}}, {"type": "Feature", "properties": {"name": "HENRY"}, "geometry": {"type": "Polygon", "coordinates": [[[-84.228, 41.166], [-84.228, 41.428], [-84.342, 41.428], [-84.342, 41.486], [-83.883, 41.488], [-83.883, 41.415], [-83.881, 41.168], [-84.228, 41.166]]]}}, {"type": "Feature", "properties": {"name": "KNOX"}, "geometry": {"type": "Polygon", "coordinates": [[[-82.364, 40.241], [-82.476, 40.265], [-82.751, 40.277], [-82.75, 40.284], [-82.75, 40.289], [-82.745, 40.35], [-82.647, 40.345], [-82.624, 40.55], [-82.375, 40.551], [-82.337, 40.555], [-82.22, 40.568], [-82.179, 40.573], [-82.185, 40.456], [-82.184, 40.454], [-82.196, 40.239], [-82.326, 40.24], [-82.364, 40.241]]]}}, {"type": "Feature", "properties": {"name": "LOGAN"}, "geometry": {"type": "Polygon", "coordinates": [[[-83.551, 40.229], [-84.015, 40.273], [-84.002, 40.483], [-83.994, 40.535], [-83.88, 40.539], [-83.52, 40.504], [-83.551, 40.229]]]}}, {"type": "Feature", "properties": {"name": "MEDINA"}, "geometry": {"type": "Polygon", "coordinates": [[[-81.974, 41.2], [-81.972, 41.275], [-81.927, 41.275], [-81.921, 41.275], [-81.915, 41.275], [-81.906, 41.275], [-81.898, 41.275], [-81.878, 41.275], [-81.685, 41.277], [-81.686, 41.202], [-81.688, 40.989], [-82.129, 40.992], [-82.173, 40.992], [-82.171, 41.064], [-82.17, 41.137], [-82.074, 41.136], [-82.072, 41.2], [-81.974, 41.2]]]}}, {"type": "Feature", "properties": {"name": "MORGAN"}, "geometry": {"type": "Polygon", "coordinates": [[[-81.845, 39.45], [-82.056, 39.46], [-82.048, 39.551], [-82.024, 39.725], [-82.077, 39.771], [-81.697, 39.756], [-81.64, 39.753], [-81.643, 39.666], [-81.586, 39.664], [-81.588, 39.587], [-81.714, 39.584], [-81.709, 39.481], [-81.823, 39.494], [-81.845, 39.45]]]}}, {"type": "Feature", "properties": {"name": "PERRY"}, "geometry": {"type": "Polygon", "coordinates": [[[-82.077, 39.771], [-82.024, 39.725], [-82.048, 39.551], [-82.159, 39.557], [-82.38, 39.597], [-82.375, 39.655], [-82.397, 39.833], [-82.472, 39.837], [-82.463, 39.93], [-82.234, 39.913], [-82.162, 39.909], [-82.17, 39.821], [-82.073, 39.816], [-82.077, 39.771]]]}}, {"type": "Feature", "properties": {"name": "PUTNAM"}, "geometry": {"type": "Polygon", "coordinates": [[[-84.342, 41.166], [-84.228, 41.166], [-83.881, 41.168], [-83.88, 40.92], [-84.11, 40.905], [-84.11, 40.861], [-84.341, 40.859], [-84.398, 40.903], [-84.399, 40.99], [-84.342, 40.991], [-84.342, 41.166]]]}}, {"type": "Feature", "properties": {"name": "SUMMIT"}, "geometry": {"type": "Polygon", "coordinates": [[[-81.591, 41.278], [-81.598, 41.351], [-81.593, 41.351], [-81.45, 41.349], [-81.4, 41.349], [-81.392, 41.348], [-81.392, 41.341], [-81.392, 41.337], [-81.392, 41.332], [-81.392, 41.277], [-81.392, 41.137], [-81.392, 41.136], [-81.393, 40.989], [-81.42, 40.907], [-81.468, 40.908], [-81.646, 40.914], [-81.648, 40.914], [-81.688, 40.989], [-81.686, 41.202], [-81.685, 41.277], [-81.591, 41.278]]]}}, {"type": "Feature", "properties": {"name": "WARREN"}, "geometry": {"type": "Polygon", "coordinates": [[[-83.989, 39.444], [-84.007, 39.255], [-84.259, 39.271], [-84.353, 39.292], [-84.348, 39.349], [-84.332, 39.549], [-84.365, 39.589], [-84.187, 39.583], [-84.114, 39.578], [-83.977, 39.569], [-83.989, 39.444]]]}}, {"type": "Feature", "properties": {"name": "LAKE"}, "geometry": {"type": "Polygon", "coordinates": [[[-81.391, 41.57], [-81.409, 41.57], [-81.418, 41.57], [-81.42, 41.57], [-81.488, 41.57], [-81.488, 41.577], [-81.488, 41.599], [-81.489, 41.628], [-81.489, 41.631], [-81.487, 41.633], [-81.478, 41.64], [-81.466, 41.649], [-81.452, 41.663], [-81.448, 41.668], [-81.444, 41.672], [-81.443, 41.673], [-81.443, 41.673], [-81.443, 41.673], [-81.443, 41.673], [-81.442, 41.674], [-81.441, 41.674], [-81.439, 41.676], [-81.438, 41.676], [-81.437, 41.677], [-81.436, 41.678], [-81.431, 41.68], [-81.413, 41.692], [-81.408, 41.695], [-81.406, 41.696], [-81.404, 41.697], [-81.402, 41.698], [-81.401, 41.7], [-81.401, 41.7], [-81.389, 41.707], [-81.388, 41.707], [-81.381, 41.712], [-81.375, 41.715], [-81.374, 41.715], [-81.374, 41.716], [-81.373, 41.716], [-81.369, 41.719], [-81.369, 41.719], [-81.367, 41.719], [-81.353, 41.728], [-81.33, 41.738], [-81.309, 41.747], [-81.307, 41.748], [-81.306, 41.748], [-81.302, 41.751], [-81.289, 41.759], [-81.287, 41.76], [-81.28, 41.76], [-81.279, 41.76], [-81.266, 41.758], [-81.264, 41.758], [-81.264, 41.758], [-81.263, 41.758], [-81.259, 41.759], [-81.256, 41.76], [-81.253, 41.76], [-81.252, 41.761], [-81.249, 41.761], [-81.249, 41.761], [-81.248, 41.762], [-81.248, 41.762], [-81.202, 41.78], [-81.202, 41.78], [-81.193, 41.783], [-81.184, 41.787], [-81.183, 41.787], [-81.168, 41.794], [-81.122, 41.814], [-81.113, 41.818], [-81.099, 41.821], [-81.096, 41.822], [-81.093, 41.823], [-81.052, 41.84], [-81.025, 41.846], [-81.01, 41.854], [-81.003, 41.855], [-81.002, 41.855], [-81.005, 41.726], [-81.004, 41.715], [-81.102, 41.714], [-81.101, 41.641], [-81.295, 41.641], [-81.296, 41.57], [-81.391, 41.57]]]}}, {"type": "Feature", "properties": {"name": "LUCAS"}, "geometry": {"type": "Polygon", "coordinates": [[[-83.454, 41.733], [-83.456, 41.727], [-83.449, 41.711], [-83.446, 41.707], [-83.41, 41.691], [-83.393, 41.692], [-83.376, 41.687], [-83.357, 41.688], [-83.342, 41.694], [-83.338, 41.699], [-83.338, 41.703], [-83.327, 41.702], [-83.299, 41.684], [-83.296, 41.682], [-83.294, 41.681], [-83.291, 41.677], [-83.29, 41.676], [-83.288, 41.676], [-83.287, 41.675], [-83.285, 41.675], [-83.278, 41.672], [-83.238, 41.651], [-83.232, 41.644], [-83.195, 41.631], [-83.166, 41.623], [-83.416, 41.619], [-83.57, 41.617], [-83.703, 41.529], [-83.712, 41.493], [-83.883, 41.415], [-83.883, 41.488], [-83.882, 41.603], [-83.88, 41.72], [-83.763, 41.724], [-83.685, 41.726], [-83.666, 41.727], [-83.64, 41.728], [-83.637, 41.728], [-83.595, 41.729], [-83.594, 41.729], [-83.585, 41.729], [-83.504, 41.732], [-83.503, 41.732], [-83.5, 41.732], [-83.498, 41.732], [-83.454, 41.733]]]}}, {"type": "Feature", "properties": {"name": "MONROE"}, "geometry": {"type": "Polygon", "coordinates": [[[-80.812, 39.849], [-80.829, 39.721], [-80.83, 39.712], [-80.832, 39.706], [-80.88, 39.621], [-80.892, 39.617], [-80.944, 39.607], [-81.02, 39.555], [-81.039, 39.54], [-81.037, 39.572], [-81.247, 39.579], [-81.283, 39.606], [-81.319, 39.707], [-81.314, 39.869], [-81.237, 39.868], [-80.812, 39.849]]]}}, {"type": "Feature", "properties": {"name": "MONTGOMERY"}, "geometry": {"type": "Polygon", "coordinates": [[[-84.157, 39.886], [-84.154, 39.886], [-84.105, 39.883], [-84.098, 39.883], [-84.056, 39.88], [-84.051, 39.88], [-84.052, 39.878], [-84.052, 39.866], [-84.053, 39.856], [-84.053, 39.855], [-84.054, 39.85], [-84.055, 39.836], [-84.093, 39.838], [-84.097, 39.793], [-84.114, 39.578], [-84.187, 39.583], [-84.365, 39.589], [-84.474, 39.59], [-84.479, 39.591], [-84.485, 39.918], [-84.448, 39.919], [-84.447, 39.919], [-84.446, 39.919], [-84.426, 39.92], [-84.158, 39.923], [-84.157, 39.886]]]}}, {"type": "Feature", "properties": {"name": "OTTAWA"}, "geometry": {"type": "MultiPolygon", "coordinates": [[[[-82.825, 41.659], [-82.809, 41.662], [-82.805, 41.664], [-82.796, 41.666], [-82.793, 41.665], [-82.794, 41.662], [-82.797, 41.658], [-82.827, 41.634], [-82.835, 41.629], [-82.842, 41.628], [-82.844, 41.647], [-82.834, 41.657], [-82.825, 41.659]]], [[[-82.803, 41.694], [-82.786, 41.697], [-82.783, 41.694], [-82.791, 41.69], [-82.802, 41.683], [-82.805, 41.675], [-82.805, 41.672], [-82.814, 41.671], [-82.826, 41.685], [-82.813, 41.692], [-82.803, 41.694]]], [[[-82.813, 41.723], [-82.81, 41.721], [-82.809, 41.708], [-82.816, 41.707], [-82.835, 41.709], [-82.836, 41.711], [-82.833, 41.716], [-82.826, 41.723], [-82.82, 41.725], [-82.813, 41.723]]], [[[-82.828, 41.482], [-82.856, 41.472], [-82.907, 41.46], [-82.92, 41.458], [-82.952, 41.458], [-83.338, 41.458], [-83.415, 41.5], [-83.416, 41.619], [-83.166, 41.623], [-83.146, 41.618], [-83.104, 41.614], [-83.086, 41.607], [-83.067, 41.595], [-83.048, 41.574], [-83.043, 41.568], [-83.043, 41.568], [-83.043, 41.568], [-83.032, 41.559], [-83.031, 41.558], [-83.028, 41.556], [-83.019, 41.55], [-83.017, 41.549], [-83.017, 41.549], [-83.0, 41.539], [-83.0, 41.539], [-82.97, 41.524], [-82.97, 41.524], [-82.97, 41.524], [-82.958, 41.521], [-82.934, 41.514], [-82.898, 41.519], [-82.897, 41.52], [-82.888, 41.523], [-82.882, 41.526], [-82.875, 41.53], [-82.869, 41.534], [-82.866, 41.538], [-82.861, 41.543], [-82.858, 41.547], [-82.857, 41.548], [-82.857, 41.551], [-82.855, 41.564], [-82.856, 41.567], [-82.857, 41.568], [-82.859, 41.574], [-82.86, 41.576], [-82.858, 41.578], [-82.857, 41.579], [-82.857, 41.579], [-82.854, 41.582], [-82.853, 41.583], [-82.848, 41.586], [-82.834, 41.588], [-82.82, 41.571], [-82.794, 41.546], [-82.785, 41.541], [-82.772, 41.541], [-82.75, 41.546], [-82.74, 41.545], [-82.733, 41.544], [-82.732, 41.544], [-82.732, 41.544], [-82.731, 41.544], [-82.728, 41.543], [-82.728, 41.543], [-82.722, 41.543], [-82.721, 41.542], [-82.718, 41.542], [-82.718, 41.542], [-82.715, 41.54], [-82.711, 41.537], [-82.711, 41.537], [-82.711, 41.536], [-82.712, 41.527], [-82.716, 41.522], [-82.722, 41.517], [-82.72, 41.511], [-82.72, 41.51], [-82.714, 41.502], [-82.71, 41.498], [-82.695, 41.494], [-82.828, 41.482]]]]}}, {"type": "Feature", "properties": {"name": "SCIOTO"}, "geometry": {"type": "Polygon", "coordinates": [[[-83.044, 38.957], [-82.807, 38.948], [-82.753, 38.945], [-82.761, 38.855], [-82.65, 38.849], [-82.707, 38.677], [-82.764, 38.68], [-82.74, 38.597], [-82.816, 38.571], [-82.82, 38.573], [-82.84, 38.586], [-82.847, 38.595], [-82.854, 38.611], [-82.87, 38.678], [-82.873, 38.71], [-82.87, 38.722], [-82.87, 38.73], [-82.871, 38.739], [-82.874, 38.745], [-82.875, 38.747], [-82.879, 38.751], [-82.889, 38.756], [-82.894, 38.757], [-82.924, 38.75], [-82.943, 38.743], [-82.969, 38.729], [-82.979, 38.726], [-83.012, 38.73], [-83.031, 38.726], [-83.031, 38.726], [-83.128, 38.642], [-83.135, 38.632], [-83.143, 38.625], [-83.157, 38.621], [-83.266, 38.605], [-83.271, 39.016], [-83.212, 38.96], [-83.044, 38.957]]]}}, {"type": "Feature", "properties": {"name": "TRUMBULL"}, "geometry": {"type": "Polygon", "coordinates": [[[-80.519, 41.341], [-80.519, 41.34], [-80.519, 41.34], [-80.519, 41.339], [-80.519, 41.339], [-80.519, 41.337], [-80.519, 41.337], [-80.519, 41.336], [-80.519, 41.333], [-80.519, 41.312], [-80.519, 41.306], [-80.519, 41.268], [-80.519, 41.268], [-80.519, 41.265], [-80.519, 41.249], [-80.519, 41.233], [-80.519, 41.219], [-80.519, 41.219], [-80.519, 41.209], [-80.519, 41.171], [-80.519, 41.146], [-80.519, 41.133], [-80.789, 41.134], [-81.002, 41.134], [-81.003, 41.272], [-81.003, 41.348], [-81.003, 41.424], [-81.003, 41.426], [-81.003, 41.502], [-80.519, 41.5], [-80.519, 41.489], [-80.519, 41.463], [-80.519, 41.435], [-80.519, 41.416], [-80.519, 41.416], [-80.519, 41.379], [-80.519, 41.372], [-80.519, 41.361], [-80.519, 41.351], [-80.519, 41.341]]]}}, {"type": "Feature", "properties": {"name": "VINTON"}, "geometry": {"type": "Polygon", "coordinates": [[[-82.29, 39.384], [-82.298, 39.295], [-82.26, 39.293], [-82.264, 39.256], [-82.264, 39.256], [-82.264, 39.254], [-82.264, 39.253], [-82.269, 39.204], [-82.307, 39.205], [-82.323, 39.028], [-82.435, 39.035], [-82.425, 39.138], [-82.536, 39.181], [-82.763, 39.208], [-82.749, 39.368], [-82.518, 39.369], [-82.514, 39.396], [-82.29, 39.384]]]}}, {"type": "Feature", "properties": {"name": "ASHTABULA"}, "geometry": {"type": "Polygon", "coordinates": [[[-80.974, 41.858], [-80.971, 41.858], [-80.958, 41.86], [-80.936, 41.862], [-80.917, 41.866], [-80.9, 41.869], [-80.854, 41.885], [-80.852, 41.885], [-80.827, 41.894], [-80.819, 41.896], [-80.816, 41.897], [-80.815, 41.898], [-80.813, 41.899], [-80.813, 41.899], [-80.809, 41.902], [-80.808, 41.902], [-80.806, 41.904], [-80.801, 41.909], [-80.801, 41.91], [-80.8, 41.91], [-80.798, 41.91], [-80.794, 41.91], [-80.786, 41.911], [-80.785, 41.911], [-80.785, 41.912], [-80.783, 41.908], [-80.782, 41.907], [-80.781, 41.907], [-80.777, 41.908], [-80.772, 41.909], [-80.771, 41.91], [-80.768, 41.911], [-80.766, 41.911], [-80.762, 41.912], [-80.758, 41.913], [-80.728, 41.919], [-80.721, 41.92], [-80.717, 41.921], [-80.712, 41.922], [-80.708, 41.923], [-80.699, 41.926], [-80.693, 41.927], [-80.636, 41.943], [-80.619, 41.947], [-80.619, 41.947], [-80.609, 41.95], [-80.582, 41.958], [-80.579, 41.958], [-80.577, 41.959], [-80.577, 41.96], [-80.576, 41.96], [-80.572, 41.961], [-80.563, 41.964], [-80.561, 41.965], [-80.556, 41.967], [-80.554, 41.968], [-80.534, 41.973], [-80.531, 41.974], [-80.53, 41.974], [-80.529, 41.975], [-80.526, 41.976], [-80.522, 41.977], [-80.519, 41.978], [-80.519, 41.978], [-80.519, 41.978], [-80.519, 41.976], [-80.519, 41.944], [-80.519, 41.929], [-80.519, 41.85], [-80.519, 41.765], [-80.519, 41.752], [-80.519, 41.739], [-80.519, 41.701], [-80.519, 41.671], [-80.519, 41.67], [-80.519, 41.539], [-80.519, 41.529], [-80.519, 41.5], [-81.003, 41.502], [-81.003, 41.7], [-81.004, 41.715], [-81.005, 41.726], [-81.002, 41.855], [-80.992, 41.856], [-80.974, 41.858]]]}}, {"type": "Feature", "properties": {"name": "CUYAHOGA"}, "geometry": {"type": "Polygon", "coordinates": [[[-81.878, 41.275], [-81.877, 41.344], [-81.971, 41.351], [-81.968, 41.506], [-81.965, 41.505], [-81.963, 41.501], [-81.958, 41.499], [-81.938, 41.491], [-81.93, 41.49], [-81.929, 41.49], [-81.877, 41.483], [-81.86, 41.484], [-81.85, 41.486], [-81.837, 41.489], [-81.836, 41.49], [-81.811, 41.496], [-81.811, 41.496], [-81.801, 41.496], [-81.8, 41.496], [-81.8, 41.496], [-81.794, 41.497], [-81.794, 41.497], [-81.782, 41.496], [-81.769, 41.492], [-81.769, 41.492], [-81.762, 41.49], [-81.759, 41.49], [-81.746, 41.487], [-81.746, 41.487], [-81.745, 41.487], [-81.744, 41.487], [-81.742, 41.488], [-81.739, 41.489], [-81.733, 41.491], [-81.728, 41.494], [-81.726, 41.494], [-81.726, 41.495], [-81.719, 41.498], [-81.717, 41.499], [-81.716, 41.5], [-81.711, 41.502], [-81.711, 41.502], [-81.708, 41.505], [-81.707, 41.506], [-81.693, 41.514], [-81.691, 41.515], [-81.688, 41.517], [-81.665, 41.531], [-81.665, 41.531], [-81.65, 41.536], [-81.648, 41.536], [-81.641, 41.538], [-81.634, 41.54], [-81.627, 41.544], [-81.617, 41.55], [-81.617, 41.551], [-81.616, 41.551], [-81.61, 41.554], [-81.61, 41.555], [-81.6, 41.561], [-81.593, 41.565], [-81.593, 41.566], [-81.592, 41.566], [-81.591, 41.567], [-81.58, 41.575], [-81.58, 41.575], [-81.58, 41.575], [-81.579, 41.576], [-81.579, 41.576], [-81.577, 41.577], [-81.576, 41.578], [-81.576, 41.578], [-81.563, 41.588], [-81.532, 41.613], [-81.532, 41.613], [-81.53, 41.614], [-81.53, 41.615], [-81.527, 41.615], [-81.521, 41.617], [-81.509, 41.621], [-81.5, 41.623], [-81.489, 41.631], [-81.489, 41.628], [-81.488, 41.599], [-81.488, 41.577], [-81.488, 41.57], [-81.42, 41.57], [-81.418, 41.57], [-81.409, 41.57], [-81.391, 41.57], [-81.392, 41.348], [-81.4, 41.349], [-81.45, 41.349], [-81.593, 41.351], [-81.598, 41.351], [-81.591, 41.278], [-81.685, 41.277], [-81.878, 41.275]]]}}, {"type": "Feature", "properties": {"name": "FULTON"}, "geometry": {"type": "Polygon", "coordinates": [[[-83.88, 41.72], [-83.882, 41.603], [-83.883, 41.488], [-84.342, 41.486], [-84.381, 41.514], [-84.4, 41.706], [-84.399, 41.706], [-84.397, 41.706], [-84.36, 41.707], [-83.881, 41.72], [-83.88, 41.72]]]}}, {"type": "Feature", "properties": {"name": "GALLIA"}, "geometry": {"type": "Polygon", "coordinates": [[[-82.139, 38.866], [-82.184, 38.817], [-82.191, 38.815], [-82.216, 38.797], [-82.222, 38.787], [-82.22, 38.774], [-82.199, 38.758], [-82.188, 38.734], [-82.182, 38.709], [-82.172, 38.626], [-82.172, 38.619], [-82.175, 38.608], [-82.177, 38.604], [-82.182, 38.599], [-82.194, 38.593], [-82.219, 38.592], [-82.246, 38.598], [-82.262, 38.598], [-82.274, 38.594], [-82.287, 38.583], [-82.362, 38.585], [-82.354, 38.676], [-82.472, 38.682], [-82.484, 38.772], [-82.583, 38.779], [-82.576, 38.844], [-82.455, 38.845], [-82.435, 39.035], [-82.323, 39.028], [-82.095, 39.003], [-82.099, 38.958], [-82.139, 38.866]]]}}, {"type": "Feature", "properties": {"name": "HARRISON"}, "geometry": {"type": "Polygon", "coordinates": [[[-81.036, 40.165], [-81.226, 40.17], [-81.34, 40.172], [-81.338, 40.214], [-81.335, 40.304], [-81.275, 40.303], [-81.27, 40.433], [-80.942, 40.425], [-80.866, 40.423], [-80.883, 40.159], [-81.036, 40.165]]]}}, {"type": "Feature", "properties": {"name": "HOCKING"}, "geometry": {"type": "Polygon", "coordinates": [[[-82.375, 39.655], [-82.38, 39.597], [-82.159, 39.557], [-82.167, 39.466], [-82.28, 39.473], [-82.29, 39.384], [-82.514, 39.396], [-82.518, 39.369], [-82.749, 39.368], [-82.741, 39.466], [-82.741, 39.468], [-82.732, 39.554], [-82.62, 39.564], [-82.618, 39.609], [-82.496, 39.603], [-82.49, 39.662], [-82.375, 39.655]]]}}, {"type": "Feature", "properties": {"name": "JACKSON"}, "geometry": {"type": "Polygon", "coordinates": [[[-82.786, 39.169], [-82.767, 39.168], [-82.763, 39.208], [-82.536, 39.181], [-82.425, 39.138], [-82.435, 39.035], [-82.455, 38.845], [-82.576, 38.844], [-82.625, 38.848], [-82.626, 38.848], [-82.65, 38.849], [-82.761, 38.855], [-82.753, 38.945], [-82.807, 38.948], [-82.786, 39.169]]]}}, {"type": "Feature", "properties": {"name": "GREENE"}, "geometry": {"type": "Polygon", "coordinates": [[[-84.097, 39.793], [-84.093, 39.838], [-84.055, 39.836], [-84.054, 39.85], [-83.827, 39.823], [-83.829, 39.798], [-83.647, 39.773], [-83.649, 39.768], [-83.649, 39.761], [-83.653, 39.717], [-83.67, 39.55], [-83.977, 39.569], [-84.114, 39.578], [-84.097, 39.793]]]}}]}